<?xml version="1.0" encoding="UTF-8"?>
<kml xmlns="http://www.opengis.net/kml/2.2">
  <Document>
    <name>untyped_polygon</name>
    <Placemark>
      <name>Untyped Lawn</name>
      <Polygon>
        <outerBoundaryIs>
          <LinearRing>
            <coordinates>
              -83.000000,42.000000,0
              -82.999920,42.000000,0
              -82.999920,42.000060,0
              -83.000000,42.000060,0
              -83.000000,42.000000,0
            </coordinates>
          </LinearRing>
        </outerBoundaryIs>
      </Polygon>
    </Placemark>
  </Document>
</kml>
