<?xml version="1.0" encoding="UTF-8"?>
<kml xmlns="http://www.opengis.net/kml/2.2">
  <Document>
    <name>simple_mow</name>
    <Placemark>
      <name>mow: Simple Lawn</name>
      <Polygon>
        <outerBoundaryIs>
          <LinearRing>
            <coordinates>
              -83.000000,42.000000,0
              -82.999910,42.000000,0
              -82.999910,42.000054,0
              -83.000000,42.000054,0
            </coordinates>
          </LinearRing>
        </outerBoundaryIs>
      </Polygon>
    </Placemark>
  </Document>
</kml>
